{
  "type": "FeatureCollection",
  "features": [
    {
      "type": "Feature",
      "properties": {
        "norad_id": 31088,
        "name": "FENGYUN 1C DEB",
        "group": "fengyun-1c-debris",
        "lat": -69.28231788540009,
        "lon": -169.18895626447818,
        "alt_km": 823.7708472253189,
        "timestamp": "2025-12-03T08:58:46.282107+00:00",
        "meta_object_name": "FENGYUN 1C DEB",
        "meta_object_id": "1999-025BGJ",
        "meta_epoch": "2025-12-03T02:54:23.160960",
        "meta_mean_motion": 14.28572278,
        "meta_eccentricity": 0.002926,
        "meta_inclination": 99.413,
        "meta_ra_of_asc_node": 36.553,
        "meta_arg_of_pericenter": 89.3587,
        "meta_mean_anomaly": 301.3086,
        "meta_ephemeris_type": 0,
        "meta_classification_type": "U",
        "meta_norad_cat_id": 31088,
        "meta_element_set_no": 999,
        "meta_rev_at_epoch": 96412,
        "meta_bstar": 0.0021893,
        "meta_mean_motion_dot": 5.471e-05,
        "meta_mean_motion_ddot": 0,
        "tle_line1": "1 31088U 99025BGJ 25337.12110140  .00005471  00000+0  21893-2 0  9996",
        "tle_line2": "2 31088  99.4130  36.5530 0029260  89.3587 301.3086 14.28572278964128"
      },
      "geometry": {
        "type": "Point",
        "coordinates": [
          -169.18895626447818,
          -69.28231788540009
        ]
      }
    },
    {
      "type": "Feature",
      "properties": {
        "norad_id": 31089,
        "name": "FENGYUN 1C DEB",
        "group": "fengyun-1c-debris",
        "lat": -80.29298872846046,
        "lon": -127.28964092574712,
        "alt_km": 809.9213293627135,
        "timestamp": "2025-12-03T08:58:46.282118+00:00",
        "meta_object_name": "FENGYUN 1C DEB",
        "meta_object_id": "1999-025BGK",
        "meta_epoch": "2025-12-01T09:07:49.380096",
        "meta_mean_motion": 13.88281458,
        "meta_eccentricity": 0.02056627,
        "meta_inclination": 98.9488,
        "meta_ra_of_asc_node": 117.8872,
        "meta_arg_of_pericenter": 242.4516,
        "meta_mean_anomaly": 143.828,
        "meta_ephemeris_type": 0,
        "meta_classification_type": "U",
        "meta_norad_cat_id": 31089,
        "meta_element_set_no": 999,
        "meta_rev_at_epoch": 67902,
        "meta_bstar": 0.00085311791,
        "meta_mean_motion_dot": 1.165e-05,
        "meta_mean_motion_ddot": 0,
        "tle_line1": "1 31089U 99025BGK 25335.38043264  .00001165  00000+0  85312-3 0  9998",
        "tle_line2": "2 31089  98.9488 117.8872 0205662 242.4516 143.8280 13.88281458679026"
      },
      "geometry": {
        "type": "Point",
        "coordinates": [
          -127.28964092574712,
          -80.29298872846046
        ]
      }
    },
    {
      "type": "Feature",
      "properties": {
        "norad_id": 31090,
        "name": "FENGYUN 1C DEB",
        "group": "fengyun-1c-debris",
        "lat": 17.70123623905215,
        "lon": -97.68334828168395,
        "alt_km": 431.46446202090465,
        "timestamp": "2025-12-03T08:58:46.282128+00:00",
        "meta_object_name": "FENGYUN 1C DEB",
        "meta_object_id": "1999-025BGL",
        "meta_epoch": "2025-12-02T19:43:55.837056",
        "meta_mean_motion": 15.3163773,
        "meta_eccentricity": 0.0058107,
        "meta_inclination": 98.9852,
        "meta_ra_of_asc_node": 78.7535,
        "meta_arg_of_pericenter": 167.1338,
        "meta_mean_anomaly": 193.1398,
        "meta_ephemeris_type": 0,
        "meta_classification_type": "U",
        "meta_norad_cat_id": 31090,
        "meta_element_set_no": 999,
        "meta_rev_at_epoch": 686,
        "meta_bstar": 0.0023487,
        "meta_mean_motion_dot": 0.00076193,
        "meta_mean_motion_ddot": 0,
        "tle_line1": "1 31090U 99025BGL 25336.82217404  .00076193  00000+0  23487-2 0  9996",
        "tle_line2": "2 31090  98.9852  78.7535 0058107 167.1338 193.1398 15.31637730  6861"
      },
      "geometry": {
        "type": "Point",
        "coordinates": [
          -97.68334828168395,
          17.70123623905215
        ]
      }
    },
    {
      "type": "Feature",
      "properties": {
        "norad_id": 31091,
        "name": "FENGYUN 1C DEB",
        "group": "fengyun-1c-debris",
        "lat": -38.45157786717708,
        "lon": 127.63190010072795,
        "alt_km": 1209.8778283309575,
        "timestamp": "2025-12-03T08:58:46.282138+00:00",
        "meta_object_name": "FENGYUN 1C DEB",
        "meta_object_id": "1999-025BGM",
        "meta_epoch": "2025-12-01T16:52:34.401216",
        "meta_mean_motion": 13.54120325,
        "meta_eccentricity": 0.02911009,
        "meta_inclination": 99.2236,
        "meta_ra_of_asc_node": 313.4843,
        "meta_arg_of_pericenter": 356.9866,
        "meta_mean_anomaly": 2.9511,
        "meta_ephemeris_type": 0,
        "meta_classification_type": "U",
        "meta_norad_cat_id": 31091,
        "meta_element_set_no": 999,
        "meta_rev_at_epoch": 61490,
        "meta_bstar": 0.0010649547,
        "meta_mean_motion_dot": 9.06e-06,
        "meta_mean_motion_ddot": 0,
        "tle_line1": "1 31091U 99025BGM 25335.70317594  .00000906  00000+0  10650-2 0  9991",
        "tle_line2": "2 31091  99.2236 313.4843 0291100 356.9866   2.9511 13.54120325614903"
      },
      "geometry": {
        "type": "Point",
        "coordinates": [
          127.63190010072795,
          -38.45157786717708
        ]
      }
    },
    {
      "type": "Feature",
      "properties": {
        "norad_id": 31092,
        "name": "FENGYUN 1C DEB",
        "group": "fengyun-1c-debris",
        "lat": 59.277944797550376,
        "lon": -69.78182038906667,
        "alt_km": 890.1025683328144,
        "timestamp": "2025-12-03T08:58:46.282149+00:00",
        "meta_object_name": "FENGYUN 1C DEB",
        "meta_object_id": "1999-025BGN",
        "meta_epoch": "2025-11-15T07:00:52.552224",
        "meta_mean_motion": 13.46401433,
        "meta_eccentricity": 0.03278725,
        "meta_inclination": 99.7115,
        "meta_ra_of_asc_node": 75.9227,
        "meta_arg_of_pericenter": 204.4209,
        "meta_mean_anomaly": 154.1084,
        "meta_ephemeris_type": 0,
        "meta_classification_type": "U",
        "meta_norad_cat_id": 31092,
        "meta_element_set_no": 999,
        "meta_rev_at_epoch": 91512,
        "meta_bstar": 0.0042000132,
        "meta_mean_motion_dot": 3.457e-05,
        "meta_mean_motion_ddot": 0,
        "tle_line1": "1 31092U 99025BGN 25319.29227491  .00003457  00000+0  42000-2 0  9992",
        "tle_line2": "2 31092  99.7115  75.9227 0327872 204.4209 154.1084 13.46401433915121"
      },
      "geometry": {
        "type": "Point",
        "coordinates": [
          -69.78182038906667,
          59.277944797550376
        ]
      }
    },
    {
      "type": "Feature",
      "properties": {
        "norad_id": 31093,
        "name": "FENGYUN 1C DEB",
        "group": "fengyun-1c-debris",
        "lat": -26.95055297067375,
        "lon": -7.2017158573525775,
        "alt_km": 851.4666599185239,
        "timestamp": "2025-12-03T08:58:46.282159+00:00",
        "meta_object_name": "FENGYUN 1C DEB",
        "meta_object_id": "1999-025BGP",
        "meta_epoch": "2025-12-02T19:47:08.094336",
        "meta_mean_motion": 13.80614868,
        "meta_eccentricity": 0.0208175,
        "meta_inclination": 98.5952,
        "meta_ra_of_asc_node": 176.7081,
        "meta_arg_of_pericenter": 250.1359,
        "meta_mean_anomaly": 107.7254,
        "meta_ephemeris_type": 0,
        "meta_classification_type": "U",
        "meta_norad_cat_id": 31093,
        "meta_element_set_no": 999,
        "meta_rev_at_epoch": 94370,
        "meta_bstar": 0.00056013,
        "meta_mean_motion_dot": 6.52e-06,
        "meta_mean_motion_ddot": 0,
        "tle_line1": "1 31093U 99025BGP 25336.82439924  .00000652  00000+0  56013-3 0  9991",
        "tle_line2": "2 31093  98.5952 176.7081 0208175 250.1359 107.7254 13.80614868943708"
      },
      "geometry": {
        "type": "Point",
        "coordinates": [
          -7.2017158573525775,
          -26.95055297067375
        ]
      }
    },
    {
      "type": "Feature",
      "properties": {
        "norad_id": 31094,
        "name": "FENGYUN 1C DEB",
        "group": "fengyun-1c-debris",
        "lat": -28.122833518513726,
        "lon": -149.72662593643466,
        "alt_km": 906.9308701459722,
        "timestamp": "2025-12-03T08:58:46.282169+00:00",
        "meta_object_name": "FENGYUN 1C DEB",
        "meta_object_id": "1999-025BGQ",
        "meta_epoch": "2025-12-02T14:16:26.636736",
        "meta_mean_motion": 14.01973787,
        "meta_eccentricity": 0.01063849,
        "meta_inclination": 98.8572,
        "meta_ra_of_asc_node": 204.7358,
        "meta_arg_of_pericenter": 74.9944,
        "meta_mean_anomaly": 286.2969,
        "meta_ephemeris_type": 0,
        "meta_classification_type": "U",
        "meta_norad_cat_id": 31094,
        "meta_element_set_no": 999,
        "meta_rev_at_epoch": 95477,
        "meta_bstar": 0.0017458582,
        "meta_mean_motion_dot": 2.755e-05,
        "meta_mean_motion_ddot": 0,
        "tle_line1": "1 31094U 99025BGQ 25336.59475274  .00002755  00000+0  17459-2 0  9990",
        "tle_line2": "2 31094  98.8572 204.7358 0106384  74.9944 286.2969 14.01973787954777"
      },
      "geometry": {
        "type": "Point",
        "coordinates": [
          -149.72662593643466,
          -28.122833518513726
        ]
      }
    }
  ]
}